[{"OBJECT_NAME":"SHIYAN-24C 03","OBJECT_ID":"2023-206C","EPOCH":"2026-03-09T21:23:43.281888","MEAN_MOTION":14.97896938,"ECCENTRICITY":0.0002411,"INCLINATION":97.3969,"RA_OF_ASC_NODE":41.7507,"ARG_OF_PERICENTER":66.6237,"MEAN_ANOMALY":293.524,"EPHEMERIS_TYPE":0,"CLASSIFICATION_TYPE":"U","NORAD_CAT_ID":58652,"ELEMENT_SET_NO":999,"REV_AT_EPOCH":12043,"BSTAR":0.00011928,"MEAN_MOTION_DOT":1.35e-5,"MEAN_MOTION_DDOT":0},{"OBJECT_NAME":"STARLINK-33905","OBJECT_ID":"2025-094T","EPOCH":"2026-03-09T20:49:25.333248","MEAN_MOTION":14.9834662,"ECCENTRICITY":0.00034,"INCLINATION":70.0019,"RA_OF_ASC_NODE":233.8551,"ARG_OF_PERICENTER":269.1788,"MEAN_ANOMALY":90.8982,"EPHEMERIS_TYPE":0,"CLASSIFICATION_TYPE":"U","NORAD_CAT_ID":63881,"ELEMENT_SET_NO":999,"REV_AT_EPOCH":4723,"BSTAR":0.00093421149,"MEAN_MOTION_DOT":0.00011077,"MEAN_MOTION_DDOT":0}]
